NORAD_CAT_ID,OBJECT_NAME,OBJECT_TYPE,EPOCH,MEAN_MOTION,ECCENTRICITY,INCLINATION,RA_OF_ASC_NODE,ARG_OF_PERICENTER,MEAN_ANOMALY,BSTAR,MEAN_MOTION_DOT,MEAN_MOTION_DDOT,TLE_LINE0,TLE_LINE1,TLE_LINE2,SEMIMAJOR_AXIS,PERIOD,APOGEE,PERIGEE,DECAYED
54788.0,STARLINK-5399,PAYLOAD,2023-09-14 13:07:21,15.08834005,0.0001341,53.2176,141.3102,82.6908,277.4236,-4.3547e-06,-3.57e-06,0.0,0 STARLINK-5399,1 54788U 22175AG  23257.54677170 -.00000357  00000-0 -43547-5 0  9990,2 54788  53.2176 141.3102 0001341  82.6908 277.4236 15.08834005 41024,6917.899,95.438,540.691,538.836,0.0
54788.0,STARLINK-5399,PAYLOAD,2023-09-14 21:04:17,15.08830237,0.000142,53.2166,139.8216,87.4501,272.6653,-6.7001e-05,-1.354e-05,0.0,0 STARLINK-5399,1 54788U 22175AG  23257.87797633 -.00001354  00000-0 -67001-4 0  9991,2 54788  53.2166 139.8216 0001420  87.4501 272.6653 15.08830237 43239,6917.91,95.438,540.758,538.793,0.0
54788.0,STARLINK-5399,PAYLOAD,2023-09-14 22:39:40,15.088317,0.0001482,53.2164,139.5258,92.1693,267.9469,-5.9654e-05,-1.237e-05,0.0,0 STARLINK-5399,1 54788U 22175AG  23257.94421550 -.00001237  00000-0 -59654-4 0  9996,2 54788  53.2164 139.5258 0001482  92.1693 267.9469 15.08831700 43242,6917.906,95.438,540.796,538.746,0.0
54788.0,STARLINK-5399,PAYLOAD,2023-09-16 01:41:12,15.08853447,0.000127,53.2165,134.4702,89.782,270.3318,1.0933e-05,-1.14e-06,0.0,0 STARLINK-5399,1 54788U 22175AG  23259.07027868 -.00000114  00000-0  10933-4 0  9995,2 54788  53.2165 134.4702 0001270  89.7820 270.3318 15.08853447 41252,6917.839,95.437,540.583,538.826,0.0
54788.0,STARLINK-5399,PAYLOAD,2023-09-16 15:59:41,15.0882908,0.0001552,53.2177,131.7904,92.7885,267.3284,0.00012382,1.683e-05,0.0,0 STARLINK-5399,1 54788U 22175AG  23259.66645267  .00001683  00000-0  12382-3 0  9999,2 54788  53.2177 131.7904 0001552  92.7885 267.3284 15.08829080 41341,6917.914,95.438,540.852,538.705,0.0
54788.0,STARLINK-5399,PAYLOAD,2023-09-17 01:32:00,15.08836599,0.0001393,53.2165,130.0105,81.6844,278.4306,8.791e-05,1.111e-05,0.0,0 STARLINK-5399,1 54788U 22175AG  23260.06389237  .00001111  00000-0  87910-4 0  9993,2 54788  53.2165 130.0105 0001393  81.6844 278.4306 15.08836599 43565,6917.891,95.438,540.719,538.792,0.0
54788.0,STARLINK-5399,PAYLOAD,2023-09-17 15:50:28,15.08844826,0.0001371,53.2157,127.3346,98.616,261.4987,2.6141e-06,-2.46e-06,0.0,0 STARLINK-5399,1 54788U 22175AG  23260.66005102 -.00000246  00000-0  26141-5 0  9994,2 54788  53.2157 127.3346 0001371  98.6160 261.4987 15.08844826 41496,6917.866,95.437,540.679,538.782,0.0
54788.0,STARLINK-5399,PAYLOAD,2023-09-17 22:12:00,15.08850874,0.0001361,53.2161,126.1458,95.2894,264.8254,7.8868e-05,9.68e-06,0.0,0 STARLINK-5399,1 54788U 22175AG  23260.92500524  .00000968  00000-0  78868-4 0  9993,2 54788  53.2161 126.1458 0001361  95.2894 264.8254 15.08850874 41537,6917.847,95.437,540.654,538.771,0.0
54788.0,STARLINK-5399,PAYLOAD,2023-09-18 20:27:25,15.08834642,0.000141,53.2166,121.9844,90.5904,269.5249,5.8051e-05,6.36e-06,0.0,0 STARLINK-5399,1 54788U 22175AG  23261.85237728  .00000636  00000-0  58051-4 0  9993,2 54788  53.2166 121.9844 0001410  90.5904 269.5249 15.08834642 43835,6917.897,95.438,540.737,538.786,0.0
54788.0,STARLINK-5399,PAYLOAD,2023-09-18 22:02:48,15.08841552,0.0001362,53.2169,121.686,89.0874,271.0274,0.00011195,1.494e-05,0.0,0 STARLINK-5399,1 54788U 22175AG  23261.91861179  .00001494  00000-0  11195-3 0  9993,2 54788  53.2169 121.6860 0001362  89.0874 271.0274 15.08841552 41683,6917.876,95.437,540.683,538.798,0.0
54788.0,STARLINK-5399,PAYLOAD,2023-09-19 23:28:57,15.08853269,0.0001355,53.2161,116.9277,90.2387,269.876,0.00016282,2.305e-05,0.0,0 STARLINK-5399,1 54788U 22175AG  23262.97844246  .00002305  00000-0  16282-3 0  9990,2 54788  53.2161 116.9277 0001355  90.2387 269.8760 15.08853269 41840,6917.84,95.437,540.642,538.767,0.0
54788.0,STARLINK-5399,PAYLOAD,2023-09-20 18:33:36,15.08829671,0.0001685,53.2161,113.359,77.4168,282.7013,-0.00010303,-1.927e-05,0.0,0 STARLINK-5399,1 54788U 22175AG  23263.77334057 -.00001927  00000-0 -10303-3 0  9992,2 54788  53.2161 113.3590 0001685  77.4168 282.7013 15.08829671 41967,6917.912,95.438,540.943,538.611,0.0
54788.0,STARLINK-5399,PAYLOAD,2023-09-20 21:44:22,15.08827563,0.0001455,53.2159,112.7643,85.9661,274.1497,-0.00012616,-2.295e-05,0.0,0 STARLINK-5399,1 54788U 22175AG  23263.90582165 -.00002295  00000-0 -12616-3 0  9990,2 54788  53.2159 112.7643 0001455  85.9661 274.1497 15.08827563 44145,6917.918,95.438,540.79,538.777,0.0
54788.0,STARLINK-5399,PAYLOAD,2023-09-20 23:19:46,15.08828467,0.0001447,53.2158,112.4666,86.3691,273.7467,-0.0001113,-2.058e-05,0.0,0 STARLINK-5399,1 54788U 22175AG  23263.97206159 -.00002058  00000-0 -11130-3 0  9990,2 54788  53.2158 112.4666 0001447  86.3691 273.7467 15.08828467 44152,6917.916,95.438,540.782,538.78,0.0
54788.0,STARLINK-5399,PAYLOAD,2023-09-21 18:24:23,15.08840342,0.0001283,53.2158,108.8971,96.6141,263.4997,6.2459e-05,7.06e-06,0.0,0 STARLINK-5399,1 54788U 22175AG  23264.76693891  .00000706  00000-0  62459-4 0  9998,2 54788  53.2158 108.8971 0001283  96.6141 263.4997 15.08840342 42116,6917.879,95.438,540.632,538.857,0.0
54788.0,STARLINK-5399,PAYLOAD,2023-09-21 19:59:46,15.08841189,0.0001353,53.216,108.5994,89.6348,270.4799,9.3356e-05,1.198e-05,0.0,0 STARLINK-5399,1 54788U 22175AG  23264.83317930  .00001198  00000-0  93356-4 0  9999,2 54788  53.2160 108.5994 0001353  89.6348 270.4799 15.08841189 44288,6917.877,95.437,540.678,538.806,0.0
54788.0,STARLINK-5399,PAYLOAD,2023-09-21 21:35:09,15.08845581,0.0001421,53.216,108.3019,90.3284,269.7871,0.00017371,2.478e-05,0.0,0 STARLINK-5399,1 54788U 22175AG  23264.89941780  .00002478  00000-0  17371-3 0  9995,2 54788  53.2160 108.3019 0001421  90.3284 269.7871 15.08845581 44291,6917.863,95.437,540.711,538.745,0.0
54788.0,STARLINK-5399,PAYLOAD,2023-09-22 19:50:33,15.08853898,0.0001487,53.2161,104.1386,89.0898,271.0264,0.00047009,7.204e-05,0.0,0 STARLINK-5399,1 54788U 22175AG  23265.82677723  .00007204  00000-0  47009-3 0  9995,2 54788  53.2161 104.1386 0001487  89.0898 271.0264 15.08853898 44439,6917.838,95.437,540.732,538.674,0.0
54788.0,STARLINK-5399,PAYLOAD,2023-09-22 23:01:19,15.0885979,0.0001483,53.216,103.5437,88.5819,271.5343,0.00054997,8.48e-05,0.0,0 STARLINK-5399,1 54788U 22175AG  23265.95925510  .00008480  00000-0  54997-3 0  9990,2 54788  53.2160 103.5437 0001483  88.5819 271.5343 15.08859790 42293,6917.82,95.436,540.711,538.659,0.0
54788.0,STARLINK-5399,PAYLOAD,2023-09-23 19:41:20,15.08848002,0.0001283,53.216,99.6774,88.3651,271.7488,0.00017592,2.514e-05,0.0,0 STARLINK-5399,1 54788U 22175AG  23266.82037606  .00002514  00000-0  17592-3 0  9999,2 54788  53.2160  99.6774 0001283  88.3651 271.7488 15.08848002 42423,6917.856,95.437,540.608,538.833,0.0
54788.0,STARLINK-5399,PAYLOAD,2023-09-23 22:52:06,15.08849687,0.0001282,53.216,99.0827,87.9832,272.1307,0.00022653,3.32e-05,0.0,0 STARLINK-5399,1 54788U 22175AG  23266.95285536  .00003320  00000-0  22653-3 0  9990,2 54788  53.2160  99.0827 0001282  87.9832 272.1307 15.08849687 44608,6917.851,95.437,540.603,538.829,0.0
54788.0,STARLINK-5399,PAYLOAD,2023-09-24 17:56:44,15.08839912,0.0001212,53.2157,95.5145,85.7641,274.3489,6.9136e-05,8.13e-06,0.0,0 STARLINK-5399,1 54788U 22175AG  23267.74773825  .00000813  00000-0  69136-4 0  9993,2 54788  53.2157  95.5145 0001212  85.7641 274.3489 15.08839912 42563,6917.881,95.438,540.584,538.907,0.0
54788.0,STARLINK-5399,PAYLOAD,2023-09-24 21:07:30,15.08843503,0.0001229,53.2157,94.9196,87.0138,273.0994,8.2333e-05,1.023e-05,0.0,0 STARLINK-5399,1 54788U 22175AG  23267.88021687  .00001023  00000-0  82333-4 0  9998,2 54788  53.2157  94.9196 0001229  87.0138 273.0994 15.08843503 44746,6917.87,95.437,540.585,538.884,0.0
54788.0,STARLINK-5399,PAYLOAD,2023-09-25 11:25:59,15.08839034,0.0001306,53.2157,92.2455,97.5202,262.5938,0.00010026,1.308e-05,0.0,0 STARLINK-5399,1 54788U 22175AG  23268.47637926  .00001308  00000-0  10026-3 0  9998,2 54788  53.2157  92.2455 0001306  97.5202 262.5938 15.08839034 44834,6917.883,95.438,540.652,538.845,0.0
54788.0,STARLINK-5399,PAYLOAD,2023-09-25 19:22:54,15.08839623,0.0001071,53.2151,90.7589,85.6739,274.4375,7.41e-05,8.92e-06,0.0,0 STARLINK-5399,1 54788U 22175AG  23268.80758011  .00000892  00000-0  74100-4 0  9995,2 54788  53.2151  90.7589 0001071  85.6739 274.4375 15.08839623 42728,6917.882,95.438,540.487,539.006,0.0
54788.0,STARLINK-5399,PAYLOAD,2023-09-25 20:58:18,15.08826893,0.0001296,53.2157,90.4612,84.8254,275.2886,0.00063348,9.805e-05,0.0,0 STARLINK-5399,1 54788U 22175AG  23268.87382881  .00009805  00000-0  63348-3 0  9994,2 54788  53.2157  90.4612 0001296  84.8254 275.2886 15.08826893 42732,6917.92,95.438,540.682,538.889,0.0
54788.0,STARLINK-5399,PAYLOAD,2023-09-26 20:49:05,15.08836039,0.0001406,53.2151,85.9994,84.9408,275.1744,0.0001183,1.595e-05,0.0,0 STARLINK-5399,1 54788U 22175AG  23269.86742824  .00001595  00000-0  11830-3 0  9998,2 54788  53.2151  85.9994 0001406  84.9408 275.1744 15.08836039 45045,6917.892,95.438,540.73,538.785,0.0
54788.0,STARLINK-5399,PAYLOAD,2023-09-27 04:46:01,15.08840514,0.0001388,53.2151,84.5126,85.5642,274.5509,0.00020479,2.973e-05,0.0,0 STARLINK-5399,1 54788U 22175AG  23270.19862779  .00002973  00000-0  20479-3 0  9998,2 54788  53.2151  84.5126 0001388  85.5642 274.5509 15.08840514 42933,6917.879,95.438,540.704,538.784,0.0
54788.0,STARLINK-5399,PAYLOAD,2023-09-27 19:04:29,15.0885113,0.000144,53.2154,81.8357,83.0029,277.1127,0.00052556,8.089e-05,0.0,0 STARLINK-5399,1 54788U 22175AG  23270.79478596  .00008089  00000-0  52556-3 0  9999,2 54788  53.2154  81.8357 0001440  83.0029 277.1127 15.08851130 43025,6917.846,95.437,540.708,538.715,0.0
54788.0,STARLINK-5399,PAYLOAD,2023-09-28 18:55:16,15.08840687,0.0001351,53.2158,77.3735,83.3162,276.7984,0.00042744,6.521e-05,0.0,0 STARLINK-5399,1 54788U 22175AG  23271.78838824  .00006521  00000-0  42744-3 0  9990,2 54788  53.2158  77.3735 0001351  83.3162 276.7984 15.08840687 43178,6917.878,95.438,540.678,538.809,0.0
